{
  "type": "FeatureCollection",
  "features": [
    {
      "type": "Feature",
      "properties": {
        "norad_id": 36036,
        "name": "SMOS",
        "group": "resource",
        "lat": -81.54309680918766,
        "lon": -92.94124279426838,
        "alt_km": 767.4331802165252,
        "timestamp": "2025-12-21T09:37:22.305134+00:00",
        "meta_object_name": "SMOS",
        "meta_object_id": "2009-059A",
        "meta_epoch": "2025-12-21T03:21:59.488704",
        "meta_mean_motion": 14.39748108,
        "meta_eccentricity": 0.0001078,
        "meta_inclination": 98.438,
        "meta_ra_of_asc_node": 180.0643,
        "meta_arg_of_pericenter": 83.8311,
        "meta_mean_anomaly": 276.3,
        "meta_ephemeris_type": 0,
        "meta_classification_type": "U",
        "meta_norad_cat_id": 36036,
        "meta_element_set_no": 999,
        "meta_rev_at_epoch": 84783,
        "meta_bstar": 0.00010146,
        "meta_mean_motion_dot": 2.74e-06,
        "meta_mean_motion_ddot": 0,
        "tle_line1": "1 36036U 09059A   25355.14027186  .00000274  00000+0  10146-3 0  9997",
        "tle_line2": "2 36036  98.4380 180.0643 0001078  83.8311 276.3000 14.39748108847837"
      },
      "geometry": {
        "type": "Point",
        "coordinates": [
          -92.94124279426838,
          -81.54309680918766
        ]
      }
    },
    {
      "type": "Feature",
      "properties": {
        "norad_id": 36110,
        "name": "YAOGAN-7",
        "group": "resource",
        "lat": -17.87583679513676,
        "lon": 54.51715009998241,
        "alt_km": 631.7829507334236,
        "timestamp": "2025-12-21T09:37:22.305144+00:00",
        "meta_object_name": "YAOGAN-7",
        "meta_object_id": "2009-069A",
        "meta_epoch": "2025-12-21T02:13:38.734752",
        "meta_mean_motion": 14.77743386,
        "meta_eccentricity": 0.0023355,
        "meta_inclination": 98.0296,
        "meta_ra_of_asc_node": 236.8197,
        "meta_arg_of_pericenter": 252.7941,
        "meta_mean_anomaly": 107.0712,
        "meta_ephemeris_type": 0,
        "meta_classification_type": "U",
        "meta_norad_cat_id": 36110,
        "meta_element_set_no": 999,
        "meta_rev_at_epoch": 86332,
        "meta_bstar": 6.8228e-05,
        "meta_mean_motion_dot": 4.38e-06,
        "meta_mean_motion_ddot": 0,
        "tle_line1": "1 36110U 09069A   25355.09280943  .00000438  00000+0  68228-4 0  9994",
        "tle_line2": "2 36110  98.0296 236.8197 0023355 252.7941 107.0712 14.77743386863321"
      },
      "geometry": {
        "type": "Point",
        "coordinates": [
          54.51715009998241,
          -17.87583679513676
        ]
      }
    },
    {
      "type": "Feature",
      "properties": {
        "norad_id": 36605,
        "name": "TANDEM-X",
        "group": "resource",
        "lat": -66.14104550709989,
        "lon": 17.850683180812098,
        "alt_km": 516.6349115031671,
        "timestamp": "2025-12-21T09:37:22.305158+00:00",
        "meta_object_name": "TANDEM-X",
        "meta_object_id": "2010-030A",
        "meta_epoch": "2025-12-20T11:47:12.909696",
        "meta_mean_motion": 15.19154059,
        "meta_eccentricity": 0.00018,
        "meta_inclination": 97.4444,
        "meta_ra_of_asc_node": 359.7582,
        "meta_arg_of_pericenter": 78.1402,
        "meta_mean_anomaly": 282.0034,
        "meta_ephemeris_type": 0,
        "meta_classification_type": "U",
        "meta_norad_cat_id": 36605,
        "meta_element_set_no": 999,
        "meta_rev_at_epoch": 85951,
        "meta_bstar": 3.1882e-05,
        "meta_mean_motion_dot": 6.03e-06,
        "meta_mean_motion_ddot": 0,
        "tle_line1": "1 36605U 10030A   25354.49112164  .00000603  00000+0  31882-4 0  9995",
        "tle_line2": "2 36605  97.4444 359.7582 0001800  78.1402 282.0034 15.19154059859511"
      },
      "geometry": {
        "type": "Point",
        "coordinates": [
          17.850683180812098,
          -66.14104550709989
        ]
      }
    },
    {
      "type": "Feature",
      "properties": {
        "norad_id": 36795,
        "name": "CARTOSAT-2B",
        "group": "resource",
        "lat": 23.24299419460969,
        "lon": -132.48166231922633,
        "alt_km": 635.2541985984317,
        "timestamp": "2025-12-21T09:37:22.305173+00:00",
        "meta_object_name": "CARTOSAT-2B",
        "meta_object_id": "2010-035A",
        "meta_epoch": "2025-12-21T04:02:48.966720",
        "meta_mean_motion": 14.7873596,
        "meta_eccentricity": 0.001276,
        "meta_inclination": 97.7845,
        "meta_ra_of_asc_node": 43.9253,
        "meta_arg_of_pericenter": 51.8425,
        "meta_mean_anomaly": 308.3934,
        "meta_ephemeris_type": 0,
        "meta_classification_type": "U",
        "meta_norad_cat_id": 36795,
        "meta_element_set_no": 999,
        "meta_rev_at_epoch": 83354,
        "meta_bstar": 9.4237e-05,
        "meta_mean_motion_dot": 6.42e-06,
        "meta_mean_motion_ddot": 0,
        "tle_line1": "1 36795U 10035A   25355.16862230  .00000642  00000+0  94237-4 0  9997",
        "tle_line2": "2 36795  97.7845  43.9253 0012760  51.8425 308.3934 14.78735960833542"
      },
      "geometry": {
        "type": "Point",
        "coordinates": [
          -132.48166231922633,
          23.24299419460969
        ]
      }
    },
    {
      "type": "Feature",
      "properties": {
        "norad_id": 36834,
        "name": "YAOGAN-10",
        "group": "resource",
        "lat": 59.04207825847553,
        "lon": 1.7495406535113633,
        "alt_km": 608.1046783746897,
        "timestamp": "2025-12-21T09:37:22.305184+00:00",
        "meta_object_name": "YAOGAN-10",
        "meta_object_id": "2010-038A",
        "meta_epoch": "2025-12-21T04:53:45.383136",
        "meta_mean_motion": 14.84635169,
        "meta_eccentricity": 0.000139,
        "meta_inclination": 97.9132,
        "meta_ra_of_asc_node": 14.9613,
        "meta_arg_of_pericenter": 78.5752,
        "meta_mean_anomaly": 9.4392,
        "meta_ephemeris_type": 0,
        "meta_classification_type": "U",
        "meta_norad_cat_id": 36834,
        "meta_element_set_no": 999,
        "meta_rev_at_epoch": 83079,
        "meta_bstar": 0.00010133,
        "meta_mean_motion_dot": 8.03e-06,
        "meta_mean_motion_ddot": 0,
        "tle_line1": "1 36834U 10038A   25355.20399749  .00000803  00000+0  10133-3 0  9990",
        "tle_line2": "2 36834  97.9132  14.9613 0001390  78.5752   9.4392 14.84635169830799"
      },
      "geometry": {
        "type": "Point",
        "coordinates": [
          1.7495406535113633,
          59.04207825847553
        ]
      }
    },
    {
      "type": "Feature",
      "properties": {
        "norad_id": 37216,
        "name": "COSMO-SKYMED 4",
        "group": "resource",
        "lat": -81.26627732223834,
        "lon": -67.76728424623582,
        "alt_km": 630.8821925345001,
        "timestamp": "2025-12-21T09:37:22.305195+00:00",
        "meta_object_name": "COSMO-SKYMED 4",
        "meta_object_id": "2010-060A",
        "meta_epoch": "2025-12-21T05:11:05.197632",
        "meta_mean_motion": 14.82155476,
        "meta_eccentricity": 0.0001431,
        "meta_inclination": 97.8799,
        "meta_ra_of_asc_node": 176.4112,
        "meta_arg_of_pericenter": 82.6751,
        "meta_mean_anomaly": 277.4624,
        "meta_ephemeris_type": 0,
        "meta_classification_type": "U",
        "meta_norad_cat_id": 37216,
        "meta_element_set_no": 999,
        "meta_rev_at_epoch": 81820,
        "meta_bstar": 9.4204e-05,
        "meta_mean_motion_dot": 6.98e-06,
        "meta_mean_motion_ddot": 0,
        "tle_line1": "1 37216U 10060A   25355.21603238  .00000698  00000+0  94204-4 0  9996",
        "tle_line2": "2 37216  97.8799 176.4112 0001431  82.6751 277.4624 14.82155476818204"
      },
      "geometry": {
        "type": "Point",
        "coordinates": [
          -67.76728424623582,
          -81.26627732223834
        ]
      }
    },
    {
      "type": "Feature",
      "properties": {
        "norad_id": 37387,
        "name": "RESOURCESAT-2",
        "group": "resource",
        "lat": 33.05624667169865,
        "lon": -115.30960111746703,
        "alt_km": 820.4939576732213,
        "timestamp": "2025-12-21T09:37:22.305205+00:00",
        "meta_object_name": "RESOURCESAT-2",
        "meta_object_id": "2011-015A",
        "meta_epoch": "2025-12-21T03:52:09.291360",
        "meta_mean_motion": 14.21600289,
        "meta_eccentricity": 0.0006034,
        "meta_inclination": 98.7865,
        "meta_ra_of_asc_node": 58.6748,
        "meta_arg_of_pericenter": 19.9212,
        "meta_mean_anomaly": 340.22,
        "meta_ephemeris_type": 0,
        "meta_classification_type": "U",
        "meta_norad_cat_id": 37387,
        "meta_element_set_no": 999,
        "meta_rev_at_epoch": 76088,
        "meta_bstar": 6.051e-05,
        "meta_mean_motion_dot": 8.8e-07,
        "meta_mean_motion_ddot": 0,
        "tle_line1": "1 37387U 11015A   25355.16121865  .00000088  00000+0  60510-4 0  9997",
        "tle_line2": "2 37387  98.7865  58.6748 0006034  19.9212 340.2200 14.21600289760881"
      },
      "geometry": {
        "type": "Point",
        "coordinates": [
          -115.30960111746703,
          33.05624667169865
        ]
      }
    }
  ]
}